{
"type": "FeatureCollection",
"name": "menganti",
"crs": { "type": "name", "properties": { "name": "urn:ogc:def:crs:OGC:1.3:CRS84" } },
"features": [
{ "type": "Feature", "properties": { "KDCBPS": "3525040", "WADMKC": "Menganti", "WADMKK": "Gresik" }, "geometry": { "type": "Polygon", "coordinates": [ [ [ 112.595160001911935, -7.225940000291362, 0.000005999998848 ], [ 112.590999999052585, -7.224610000205063, 0.000005999998848 ], [ 112.594080000564958, -7.226529999873645, 0.000005999998848 ], [ 112.592412124628098, -7.232313098015084, 0.000005999998848 ], [ 112.58870000020984, -7.226500001877098, 0.000005999998848 ], [ 112.588730000347084, -7.230639999768107, 0.000005999998848 ], [ 112.57865325375036, -7.229671936102144, 0.000005999998848 ], [ 112.580129999635815, -7.233550000299608, 0.000005999998848 ], [ 112.575720001022802, -7.236930000094405, 0.000005999998848 ], [ 112.576070000827144, -7.241740000051873, 0.000005999998848 ], [ 112.572130000770784, -7.241109999660503, 0.000005999998848 ], [ 112.57445000150166, -7.246450001986463, 0.000005999998848 ], [ 112.568660001067698, -7.243250000518439, 0.000005999998848 ], [ 112.566686296387303, -7.245544258621799, 0.000005999998848 ], [ 112.564210001373397, -7.244279999900331, 0.000005999998848 ], [ 112.562370000143261, -7.247590000595725, 0.000005999998848 ], [ 112.565683796293158, -7.252117341950473, 0.000005999998848 ], [ 112.560620001121421, -7.253760000738323, 0.000005999998848 ], [ 112.562440000463454, -7.259390000091739, 0.000005999998848 ], [ 112.558689935699192, -7.257590343293558, 0.000005999998848 ], [ 112.557440000049922, -7.261670000171579, 0.000005999998848 ], [ 112.557154789438798, -7.258201884314902, 0.000005999998848 ], [ 112.547262201966888, -7.257089059630029, 0.000005999998848 ], [ 112.538960000857159, -7.270730001676577, 0.000005999998848 ], [ 112.529569999227135, -7.269960000284392, 0.000005999998848 ], [ 112.527689999610629, -7.282390000192273, 0.000005999998848 ], [ 112.533170000423198, -7.28357000029831, 0.000005999998848 ], [ 112.529490000657816, -7.285480000230127, 0.000005999998848 ], [ 112.528450000392155, -7.295129999876184, 0.000005999998848 ], [ 112.542847194347857, -7.294404608683068, 0.000005999998848 ], [ 112.551604995816874, -7.297052589017876, 0.000005999998848 ], [ 112.552420000443206, -7.301270001336851, 0.000005999998848 ], [ 112.562285728288131, -7.304448968231666, 0.000005999998848 ], [ 112.561252233621744, -7.309777989009953, 0.000005999998848 ], [ 112.568299999420972, -7.31248999975674, 0.000005999998848 ], [ 112.570774042358465, -7.312206879764272, 0.000005999998848 ], [ 112.571062316224683, -7.307402285133086, 0.000005999998848 ], [ 112.586648845480568, -7.313246462222049, 0.000005999998848 ], [ 112.588967446636246, -7.310385437695059, 0.000005999998848 ], [ 112.597340000205776, -7.311510000119583, 0.000005999998848 ], [ 112.599117019653036, -7.308105863621296, 0.000005999998848 ], [ 112.610730000369969, -7.313479999688227, 0.000005999998848 ], [ 112.629745483506952, -7.314701213183386, 0.000005999998848 ], [ 112.628016759285998, -7.29080011989952, 0.000005999998848 ], [ 112.621680916434286, -7.282646953224588, 0.000005999998848 ], [ 112.629092390329106, -7.273632522641267, 0.000005999998848 ], [ 112.63146165107689, -7.26104280793079, 0.000005999998848 ], [ 112.618086885441599, -7.257694105082725, 0.000005999998848 ], [ 112.612416787640228, -7.249640000920931, 0.000005999998848 ], [ 112.603991474217395, -7.249516476375606, 0.000005999998848 ], [ 112.60161336955565, -7.246429816768639, 0.000005999998848 ], [ 112.607084423147953, -7.237201258132427, 0.000005999998848 ], [ 112.595160001911935, -7.225940000291362, 0.000005999998848 ] ] ] } }
]
}
