{"type":"FeatureCollection","features":[{"type":"Feature","id":39614,"geometry":{"type":"Polygon","coordinates":[[[112.5832018071178,-7.2763435554107332],[112.58329831966182,-7.2760765170176001],[112.583091461202,-7.2758806959373032],[112.58296906527016,-7.2757936100869642],[112.58262431915705,-7.2756501664219968],[112.58233237403988,-7.2755510143677498],[112.58229571587469,-7.2755527689450901],[112.58224154341258,-7.2755640788191158],[112.58218272595207,-7.2755928544266339],[112.58213813396776,-7.2756105485879061],[112.58208558658066,-7.2756170605788384],[112.58185096964655,-7.2755546854003796],[112.58170782455647,-7.2754489584026487],[112.58164873460146,-7.2753994390328103],[112.58155770342535,-7.2752911804435598],[112.58147098359905,-7.2751355302804654],[112.58146431242812,-7.2751065334397254],[112.58146706525292,-7.275082476574994],[112.58148113964296,-7.2750498824460692],[112.58149930504896,-7.2749918662815389],[112.58119526405028,-7.2747865285753619],[112.58104262301867,-7.2746556115671979],[112.58088067400399,-7.2744684914276831],[112.58074755725397,-7.2743259335949233],[112.58084303467842,-7.2740615221214853],[112.58093524756373,-7.2738463925969086],[112.58081786805019,-7.2735918565788893],[112.58081345597623,-7.2734832940187744],[112.58078313713213,-7.2734613415676108],[112.58057741361677,-7.2734399080252956],[112.58052292819059,-7.273425996412584],[112.58044820442115,-7.2733900945771666],[112.5803250440656,-7.2733402559480282],[112.58021230955046,-7.2733042174156708],[112.57998599156031,-7.2731163265571581],[112.57979895865503,-7.2729937543582537],[112.57964850297606,-7.2729327119750451],[112.57942831296634,-7.2728742623372682],[112.57926230441183,-7.2728494365522351],[112.57928580459622,-7.2726725201206364],[112.57913673117525,-7.2726221400996565],[112.57916436824109,-7.2725391425673251],[112.57918556256368,-7.2724498362908889],[112.57918664264946,-7.2724171045657044],[112.57910711200373,-7.2723733534474491],[112.57898890331535,-7.2723301005536314],[112.57890457658505,-7.2723023672604086],[112.57886025259859,-7.2722901355812724],[112.57879654642352,-7.2722654051243012],[112.57876848667638,-7.2722493198501752],[112.57873094807485,-7.2722128361534146],[112.5787152755895,-7.272194359581988],[112.57871247240269,-7.2721822529085784],[112.57870911163627,-7.2721606565889942],[112.57871294364747,-7.272146269234895],[112.57871679004791,-7.2721357714486317],[112.57872168056122,-7.2721251738376509],[112.57872721408967,-7.2721058078367378],[112.57872544062661,-7.2720898115954924],[112.57870933916467,-7.2720765780715624],[112.57868211758569,-7.2720644695995702],[112.57865653457145,-7.2720519015739455],[112.57863431142437,-7.2720386878351064],[112.57861096502404,-7.2720249372010244],[112.57853385625253,-7.2719902179741212],[112.57830211624969,-7.2719172541778789],[112.5782432232462,-7.2719025421685615],[112.5781853114031,-7.2718908114117653],[112.57815639190403,-7.271884943335408],[112.57812440122018,-7.2718761038990465],[112.57811646110588,-7.2718691710254006],[112.57811829482353,-7.271838335970358],[112.5781201726079,-7.2717984600308796],[112.57811510043155,-7.2717785904095535],[112.57807617057892,-7.2717717618572806],[112.57801127280209,-7.2717481213786641],[112.5778813216657,-7.2716992108498744],[112.5777796721942,-7.2716506555532874],[112.57773472407837,-7.2716306510336608],[112.57769433912256,-7.2716341386045542],[112.57766630455637,-7.2716465285644176],[112.57763843996213,-7.2716858631120544],[112.57761941030765,-7.2717105198245804],[112.57757692093821,-7.2717319128973941],[112.57744564869779,-7.2717109443045729],[112.57736756685983,-7.2716971118322249],[112.57732641298367,-7.2716944534362256],[112.57728383008475,-7.2716889064178645],[112.57723696731227,-7.2716763213051649],[112.5771900982445,-7.2716623809141083],[112.57714185141538,-7.2716596559682785],[112.57709648961134,-7.2716711142305144],[112.57706526694858,-7.2716684198616122],[112.57703966055192,-7.2716487103196528],[112.57701830255269,-7.2716275393793808],[112.5769449142764,-7.2716097130177673],[112.57689076789472,-7.2716072803516454],[112.57682502925172,-7.2715995515779923],[112.57677356824559,-7.2715962060999573],[112.57674700856762,-7.2716031695505876],[112.57672650942095,-7.2716134559961461],[112.57669970962399,-7.2716151772985427],[112.57667518601113,-7.2716065833770926],[112.57664753815345,-7.2716011640624174],[112.5766246962728,-7.2716035949298998],[112.57659712755549,-7.2716210489721789],[112.5765695489456,-7.2716352483679429],[112.57655484143288,-7.2717430635914866],[112.57653846927496,-7.2718233118962985],[112.5765065901071,-7.2718890604317608],[112.57648749210409,-7.2719372209259632],[112.57647806630973,-7.2719964700609694],[112.57647668585048,-7.2720717855843873],[112.57644016258348,-7.2721549953566864],[112.57635184825926,-7.2724611479635541],[112.57632152311987,-7.2725017559512253],[112.57626276231667,-7.2726107214076023],[112.57622722740473,-7.2726776543502183],[112.57615958399765,-7.2727447024060439],[112.57614770755072,-7.2727649020785066],[112.57605480308678,-7.2729972985864038],[112.57594149840145,-7.2731822135882567],[112.57586338508725,-7.2733093255648669],[112.57584991144427,-7.2733426454466894],[112.57584594543414,-7.2733617335571239],[112.57585305817213,-7.2733887392988095],[112.57587822210235,-7.2734097168848848],[112.57590442295077,-7.2734287015732662],[112.57592661012507,-7.2734526730023958],[112.5759337066753,-7.2734746173596818],[112.57592586368776,-7.2735167739799067],[112.57591103566585,-7.2735903259327301],[112.57590990341942,-7.273629656883088],[112.57591259059359,-7.2736727712813263],[112.57591147363564,-7.2737158092371601],[112.57590023031139,-7.2737678323195496],[112.5758826611559,-7.2738262064142418],[112.57572114921174,-7.2742559285682091],[112.57564227057435,-7.2746347374031757],[112.57563246256814,-7.2746917274412226],[112.57561707606726,-7.2747972853663896],[112.57560877712342,-7.2748586101366755],[112.57561462631406,-7.27490849642993],[112.57563617766755,-7.2749425933259886],[112.57567346805615,-7.2749723878653754],[112.57573120902816,-7.2750205555541356],[112.57575160385352,-7.2750445323792405],[112.57576566925025,-7.2750736839033152],[112.57577864197083,-7.275131951878052],[112.57578261787353,-7.2751800341312105],[112.57578282112036,-7.2752383461726708],[112.57577024679949,-7.2752941715887118],[112.57574751643483,-7.2753285139996819],[112.57569409940322,-7.2754065400797003],[112.57566938603338,-7.2754505645918357],[112.57564360966489,-7.2755104135746933],[112.57563253001729,-7.2755668649188578],[112.57560615020373,-7.275774891597905],[112.57559923531653,-7.2758262671684406],[112.575612208037,-7.2758632895591404],[112.57565952856442,-7.2759001914406554],[112.57568954343776,-7.2759199774249623],[112.57571824709953,-7.2759498034406533],[112.57574426358701,-7.2760224884470404],[112.57575581358003,-7.2762939416120958],[112.57575593858576,-7.27633001341934],[112.57574708655886,-7.276382298204453],[112.57572740669457,-7.2764347115926284],[112.57568072558513,-7.27651777657411],[112.57558731120548,-7.2766893330462494],[112.5754728059253,-7.2769158380954195],[112.57544557625238,-7.2769661083991082],[112.57539777458771,-7.277027842361008],[112.57536592419808,-7.2770803888488444],[112.57534319383342,-7.2771147321591343],[112.5753273738593,-7.277160352068563],[112.5752954416314,-7.2772541252776364],[112.57529442809539,-7.2772845961071653],[112.57529002231672,-7.2773274631918525],[112.57528802582181,-7.2773973549039397],[112.5752813330671,-7.2774267609362369],[112.57526095083233,-7.2774279165650455],[112.57521688315273,-7.2774247239717624],[112.57518975330458,-7.2774180393110441],[112.5751671191673,-7.2774158575557522],[112.57513321742408,-7.277415975366921],[112.57510496342343,-7.2774296342701632],[112.57507449709044,-7.2774297403901755],[112.57503824991534,-7.2774208254107293],[112.57498395514551,-7.2773973279242909],[112.57495559862207,-7.2773816050769824],[112.57491706357166,-7.2773592281458264],[112.57488990944182,-7.2773457625968376],[112.57486392802787,-7.2773470270436178],[112.57485037704328,-7.277358286555625],[112.57483915440355,-7.2773729688873345],[112.57475027530506,-7.2774970465513888],[112.57460107867689,-7.2777542301735139],[112.57421847560227,-7.2777826820251335],[112.57348120959023,-7.2778220390558204],[112.5729280545861,-7.2778513551558603],[112.5718295605858,-7.2777967663076879],[112.57145936365873,-7.277763424842135],[112.5713989490024,-7.2781057355911685],[112.57139208267859,-7.2782140661262247],[112.57173563629067,-7.2782725418442737],[112.57165954465233,-7.2784229723422413],[112.57162590910843,-7.2784568111328554],[112.57160510689027,-7.2784873512102308],[112.57153511355466,-7.2787169562225245],[112.57150570122724,-7.2788691233113241],[112.5715180174426,-7.2788893310777212],[112.57153252440651,-7.2789805915809893],[112.57155056840406,-7.2791228301544493],[112.5715599591249,-7.2794394931380566],[112.57155736458083,-7.2796814305535236],[112.57158449982489,-7.2797107205732345],[112.57162836066038,-7.2797399494390902],[112.57161975594704,-7.2797780402243575],[112.57150770941337,-7.2801752249066567],[112.57144691884025,-7.2803882554135839],[112.57144608516876,-7.2804060682854015],[112.57164571217993,-7.2804339445708592],[112.57169404444471,-7.2804391102766886],[112.57169732427212,-7.2804589879918353],[112.57170688226688,-7.2804803810647059],[112.57171577925988,-7.2805049424491131],[112.57171585120568,-7.2805255531117155],[112.57171191667169,-7.280553322377898],[112.57170961710517,-7.2805795484073883],[112.57169464968842,-7.2806129600200507],[112.57168122460894,-7.280639133888883],[112.5716757351471,-7.2806709761845809],[112.57164221021992,-7.2807579739013022],[112.57174629955216,-7.2807780440714396],[112.5719622699429,-7.2808238564358021],[112.57218912662699,-7.2808869843468074],[112.57229382210232,-7.280909131950807],[112.57234211119953,-7.2809234293727059],[112.57237279516846,-7.280942580435692],[112.57237442384064,-7.280960203550535],[112.57236974556736,-7.2809890591976796],[112.5723617982585,-7.281022808955413],[112.572368286867,-7.2810420418567219],[112.5723941441745,-7.2810692562411532],[112.57241677381512,-7.2810916880309264],[112.57246265902461,-7.281123170597823],[112.57249616956267,-7.2811396902444585],[112.5725447671274,-7.2811562458639969],[112.57263714099133,-7.2811781659395365],[112.57275342423122,-7.2812038892480473],[112.57277704042815,-7.2812096835799593],[112.57276098393231,-7.2812732953262866],[112.572750728963,-7.2814378721600406],[112.57274701656161,-7.2816369613765914],[112.5727580395519,-7.2816924315604297],[112.57279210227375,-7.2817171764065165],[112.57286120258254,-7.2817462272065541],[112.57291452158802,-7.2817686464058511],[112.5729497165562,-7.2817967304347349],[112.5729746709444,-7.2818215031597902],[112.57298722817814,-7.2818463244482814],[112.57298844586012,-7.2818745253890143],[112.57298742512967,-7.2819027353229444],[112.57295821425021,-7.282134821564739],[112.57291855324866,-7.282239199579351],[112.57285321300549,-7.2823893216098554],[112.57279620228292,-7.2825508029771413],[112.57278330420615,-7.2826424313030884],[112.57275335318479,-7.2828759645540799],[112.57270174468988,-7.2832591989528055],[112.57263582798112,-7.283608129611423],[112.57258770256044,-7.283834221871814],[112.57265384499897,-7.2843424395518923],[112.57268258643228,-7.284468187257005],[112.57273812496453,-7.2848269124320382],[112.57281794968867,-7.2849971424041655],[112.57285205557798,-7.2850343590483817],[112.5728894925561,-7.2850420941173297],[112.57291009242692,-7.2851030465682811],[112.5729089745696,-7.2852965222166972],[112.57289218062965,-7.28538400556738],[112.57286918856221,-7.2854292873316808],[112.57285926184557,-7.2854734404468786],[112.57285940843497,-7.2855156600196551],[112.57285758910655,-7.285571899123795],[112.57286472342832,-7.2856050544296522],[112.57291064101332,-7.2857740460353284],[112.57298885595105,-7.2859325281635847],[112.57301966312696,-7.2860086341910915],[112.57302621468807,-7.2860454065702243],[112.57303811181941,-7.2862452548146166],[112.57303687525166,-7.2863400964182574],[112.57303233457469,-7.2864300672937361],[112.57302446101016,-7.286484700208689],[112.57301493359239,-7.2865151998165629],[112.57301182913272,-7.2865457695715463],[112.57300067124402,-7.2865795292218536],[112.57299435620462,-7.286610108869354],[112.57299453516976,-7.2866614592588803],[112.57300912756921,-7.2866919660613121],[112.57301242898052,-7.2867176300145502],[112.57299427256771,-7.2867788990268991],[112.57299037040934,-7.2867943718626975],[112.57298987758088,-7.2868033264123255],[112.5729973734301,-7.2868112539361505],[112.57301281658829,-7.2868076764330567],[112.57303178958546,-7.286809145025984],[112.57305473308952,-7.286814038237253],[112.57307610008206,-7.2868169484433452],[112.57310255723723,-7.2868232733753189],[112.57312446742026,-7.2868316055941023],[112.57313792757338,-7.2868375249317978],[112.57314242598227,-7.2868424819948814],[112.5731454324158,-7.2868479858458386],[112.57314650260912,-7.2868549439004937],[112.57314506459306,-7.2868708610013755],[112.57313870908422,-7.2869115661158617],[112.57312437119288,-7.2869541975780976],[112.57312062461722,-7.2869717514451509],[112.57311252262491,-7.2869825361150902],[112.57310120195893,-7.2869913449745241],[112.57309054499274,-7.286997620443799],[112.57306472815469,-7.287003404883194],[112.57304711942913,-7.2870072638741021],[112.57303263944482,-7.287009754996177],[112.57300867431093,-7.2870111039792391],[112.57300300858208,-7.2870142875792681],[112.57300052555388,-7.287030028413028],[112.57299515390332,-7.2871173795633695],[112.57297827093055,-7.2872011541099369],[112.57299066358837,-7.2873282238184061],[112.57298233496681,-7.2874240843539724],[112.57296275942383,-7.2875919473104886],[112.57294133217681,-7.2877433625660615],[112.57293386240792,-7.2877853384225659],[112.57292511740036,-7.2878260534295691],[112.57291373198325,-7.2878590891256181],[112.57289598206398,-7.2878870868195804],[112.57289097643752,-7.2879074465713529],[112.57288343742073,-7.2879303451093165],[112.57286312443375,-7.287950757021747],[112.57284787283118,-7.2879673549094264],[112.57283906666964,-7.2879902579439886],[112.57283019395834,-7.2880156925701272],[112.57282648155694,-7.2880436425999733],[112.57281686690499,-7.2880912293267102],[112.57280883955639,-7.2881019258631454],[112.57280350297935,-7.2881136062578662],[112.57280893668315,-7.2881296798407789],[112.57282241841995,-7.288141205552165],[112.57283321568048,-7.2881537340075511],[112.57284313160528,-7.2881706961206874],[112.57285209514816,-7.288192996609439],[112.57285574459695,-7.2882116971121036],[112.5728603194483,-7.2882385319826426],[112.57286043096417,-7.2882707169200103],[112.57285600000444,-7.2882850161405486],[112.57284453814498,-7.2883172424467375],[112.57282587631323,-7.2883619684300243],[112.57278935844215,-7.2884255603912607],[112.57276792759785,-7.2884694805820232],[112.57276240665976,-7.2884917423999696],[112.57275854317231,-7.2885187859131975],[112.57275861601738,-7.2885394892060162],[112.57276431142384,-7.288566500343677],[112.57278683764252,-7.288623649561714],[112.57279564110604,-7.2886426954040076],[112.5727980800674,-7.288656971242176],[112.57279493244027,-7.2886752445668321],[112.5727846855649,-7.2886920052318374],[112.57274078515911,-7.2887798519086004],[112.57273236120955,-7.2888053773662023],[112.57272111698603,-7.2888145468538141],[112.57269630019414,-7.2888288271885813],[112.57267722287554,-7.2888401964178797],[112.57266025086994,-7.2888558032526589],[112.57263836316997,-7.2888749552149648],[112.5726179089894,-7.2888983510779894],[112.5725995574237,-7.2889252659882118],[112.57259253012126,-7.2889443675884422],[112.5725834190896,-7.288965646447366],[112.57252901999834,-7.2891266655631171],[112.57252014998494,-7.289152554346856],[112.57252377515215,-7.2891642041646492],[112.57254713144505,-7.2891811204123087],[112.57255880644379,-7.289188220559879],[112.57253743855199,-7.2892285263753251],[112.57250236409288,-7.2892988038966564],[112.57248191980477,-7.2893680364057332],[112.57245175564412,-7.2894118981405427],[112.57242726530615,-7.2894556492587412],[112.57241574858801,-7.2894723253874645],[112.57239856614103,-7.2894703954423221],[112.57237232842033,-7.2894624400395287],[112.57234610059209,-7.2894584632374517],[112.5723148878219,-7.2894585720554232],[112.57229578262434,-7.2894617115886717],[112.57228267410619,-7.2894717929888202],[112.57227467913322,-7.2894918910378692],[112.57225465123122,-7.2895302030563585],[112.5722306060577,-7.2895735009162763],[112.57221256206014,-7.2896026749234579],[112.57220257059225,-7.2896288371010769],[112.57220064694241,-7.2896550622313043],[112.57220073507597,-7.2896801955845376],[112.57220450413467,-7.2897544049417888],[112.5721982871213,-7.2897705198935228],[112.57218314343743,-7.2897964293616724],[112.57217691113556,-7.2898081133537289],[112.57216176565305,-7.2898332080361001],[112.57216095626313,-7.2898582541550354],[112.57216373786628,-7.289885005388669],[112.57215484896722,-7.2899056484268954],[112.57213523655196,-7.2899351893574362],[112.57210766423736,-7.2899943215806502],[112.57210592944512,-7.2900104194452524],[112.5721552509641,-7.2900210062643964],[112.57218986856765,-7.2900545186010959],[112.57221256206014,-7.2900736040135712],[112.57220256429696,-7.2901188444091076],[112.57217568266174,-7.2902049131262174],[112.57217457829427,-7.2902308639631315],[112.57217924757424,-7.2902636649361625],[112.57217868280009,-7.2903801109533219],[112.57216729198694,-7.2904116124059328],[112.57215450362753,-7.2904488155603531],[112.57213604414324,-7.2904874819117254],[112.57211328320147,-7.290534753875761],[112.57211042605536,-7.2905504956088407],[112.57213488401771,-7.2905618009862678],[112.57216500860829,-7.2905702851904834],[112.57219225356971,-7.2905888139225681],[112.57218100395028,-7.2906388504025585],[112.57217102867014,-7.2906688985507913],[112.57215973768177,-7.2907075424191135],[112.57215983840592,-7.2907361993160862],[112.57216572266998,-7.290774782929816],[112.5721713146545,-7.2907937478331633],[112.57217393707765,-7.290817878442283],[112.57217404859352,-7.2908497009528901],[112.57216277289376,-7.2908929574439867],[112.57215141085896,-7.2909324134001281],[112.57213627616829,-7.2909820982451947],[112.5721287794197,-7.2910164784277072],[112.57212248956125,-7.2910546519505601],[112.57212012344496,-7.2911042045953423],[112.57212025204808,-7.2911410893897255],[112.57209033340223,-7.2912124344062477],[112.57202281859827,-7.2913608450269294],[112.57200932786827,-7.2914106162069174],[112.5720083224262,-7.2914434369649825],[112.57200509655797,-7.2914818712912961],[112.5719553190828,-7.2917694484012827],[112.57191419398498,-7.2919040274488793],[112.57186429330261,-7.2921130415835478],[112.57186312058661,-7.2921410698544378],[112.57185438097497,-7.2921830493082211],[112.57184177607712,-7.2922301953671536],[112.57183169557641,-7.292273445563012],[112.57182669444649,-7.2922950688623018],[112.57181016940388,-7.2923104050011602],[112.57177322705286,-7.2923168630327382],[112.57173373242586,-7.2923195313212545],[112.57171330342624,-7.2923285524207131],[112.57169940890071,-7.2923489454474293],[112.57168802528224,-7.2923820710756786],[112.57168976007438,-7.2924515895691684],[112.57187001389013,-7.2924901983639074],[112.57187366963421,-7.2925960521660045],[112.57200335187326,-7.2925874654391123],[112.57207520410748,-7.2925912821618795],[112.57212165858778,-7.2925929279212482],[112.57216968418368,-7.2926167185866575],[112.57222559413594,-7.2926317129831091],[112.5722648081744,-7.2926344703045061],[112.57229019243846,-7.2926329351618051],[112.57232727508369,-7.2926451020897503],[112.57236138187238,-7.2926608941848485],[112.57242026858057,-7.2926729855697658],[112.57247142921312,-7.2926961323206001],[112.57255614265193,-7.2927690664392344],[112.57258380040207,-7.2927982620301464],[112.57257549516305,-7.2928368042750549],[112.57267496557722,-7.2929016435959397],[112.57275233515224,-7.2929456744033132],[112.57282467212099,-7.2929814944004079],[112.57291772227518,-7.2930037724061094],[112.57296827406662,-7.2930026005894888],[112.57307779530402,-7.2930372074011416],[112.57323602742076,-7.2930775204112024],[112.5733481054308,-7.2930963863890952],[112.57340049543654,-7.2931081369309254],[112.57344553258531,-7.2931317594230904],[112.57349327219686,-7.2931380124093153],[112.5735695670819,-7.2931523898708406],[112.57364763812802,-7.2931621529110089],[112.5736889385937,-7.2931639083876121],[112.57372569658367,-7.293168301575804],[112.57374830643926,-7.2931849471275427],[112.5738015184254,-7.2932181222184909],[112.57382277030467,-7.2932310670600486],[112.5738497598586,-7.293240014415062],[112.57387673502342,-7.2932448024056384],[112.57390917896555,-7.2933616773994459],[112.57395048482704,-7.2933646055920462],[112.57395076181831,-7.2934438898236067],[112.57402667359213,-7.29358366605328],[112.57403515240037,-7.2935947555934604],[112.57411455444321,-7.2934516365837112],[112.57414653343585,-7.2934139172184587],[112.57420338497832,-7.2933990721094233],[112.57423000311223,-7.2933871372065937],[112.57428309099191,-7.2932355214021527],[112.57430267103155,-7.2931972102829832],[112.57432586724508,-7.2931890831096666],[112.57439908644869,-7.2931992265629901],[112.57444317661134,-7.2932082944271883],[112.57446061356654,-7.293197835311787],[112.57448135642949,-7.2931502989470687],[112.5745695691304,-7.2931557794156561],[112.57473114222853,-7.2931911065842314],[112.5748520138095,-7.2932254013311422],[112.57517224800085,-7.2933173138429197],[112.57531583106083,-7.2933332669167044],[112.57544710240188,-7.2933729504013058],[112.57549568467812,-7.2933851685905893],[112.57554214455433,-7.2933890734469173],[112.57559382859233,-7.2933909719157555],[112.57562118506974,-7.2932487594226814],[112.57564487411173,-7.2931465145999255],[112.57567721912847,-7.2930643129676014],[112.57569922643825,-7.2929939014473462],[112.57570557385316,-7.2929509354372613],[112.57571179896047,-7.2928519173820519],[112.57571659144764,-7.2927274098420298],[112.57572143159882,-7.292681286312245],[112.57574284715474,-7.2926762393169611],[112.57581392057602,-7.2926924451002151],[112.57622444400295,-7.292786031250273],[112.57634938861349,-7.2928105485678998],[112.5763890298299,-7.292807426121783],[112.57643455620985,-7.2927999455610006],[112.57646093062749,-7.2927823125536406],[112.57648569525873,-7.2927104441316715],[112.57656946710733,-7.2927276913298442],[112.57665761955354,-7.2927376890930304],[112.5767046451034,-7.29273164924615],[112.57673248361732,-7.2927271220589773],[112.57677149980498,-7.2925453591809628],[112.57685585981017,-7.2921117465597831],[112.57681602344076,-7.2920806030373342],[112.57680527744162,-7.2919757690664255],[112.57679441992661,-7.2918181385961702],[112.57676340230921,-7.2917035200014197],[112.57675812958405,-7.2916695454131286],[112.57675798928983,-7.2916293151407103],[112.57677613311216,-7.2915004234057506],[112.57682436015614,-7.291411202564916],[112.57684908611645,-7.2913707951260562],[112.5768894881594,-7.2913715604491358],[112.57691706227263,-7.291376977065795],[112.57695476994672,-7.2913759410467947],[112.57699336794963,-7.2913730955918368],[112.57702180541207,-7.2913692878623237],[112.57705211256496,-7.2913664711856541],[112.57708058779895,-7.2913517250020732],[112.5771035915576,-7.2913099685801512],[112.57714835081583,-7.291168596053808],[112.57716715743845,-7.2911226955558845],[112.57718538399831,-7.2910814049828332],[112.5771968152809,-7.2910618384330519],[112.57720595059425,-7.2910475212260621],[112.57720992020177,-7.2910296975624647],[112.5772098500546,-7.2910096273923273],[112.57722021743916,-7.2909419668982309],[112.57717340592797,-7.2908810153465424],[112.57716597303124,-7.2908695588830028],[112.57716755314016,-7.2908516533810257],[112.57723245541354,-7.2907046969641556],[112.57725816163486,-7.2906456618677566],[112.57728574204339,-7.2906318239994334],[112.57730674481047,-7.2906158394494014],[112.57731684959299,-7.2906012488485317],[112.57732413500094,-7.2905918212554752],[112.57732992843353,-7.2905823981590743],[112.57735172530192,-7.2905801525519678],[112.57738079858507,-7.2905872841757855],[112.5774201331327,-7.2906030582844892],[112.57747318863676,-7.2906130893225622],[112.57752556155549,-7.2906208621629958],[112.57755394415926,-7.2906222093474184],[112.57757488757102,-7.2905685252172248],[112.57761517629945,-7.2904508552227298],[112.57763760359262,-7.2904159714199182],[112.57765912706714,-7.2903987179264504],[112.57769387956898,-7.2903435391230005],[112.57774031516351,-7.2902113864462876],[112.57775498040803,-7.2901555520370493],[112.57776439720919,-7.2900511893108728],[112.57776994512687,-7.2899932190118193],[112.57778946131464,-7.289958074405547],[112.57782403485135,-7.2899151003015845],[112.57784930759954,-7.2898605869964399],[112.57787152355206,-7.2898069892011677],[112.57795552742573,-7.2897841841926834],[112.5779786831697,-7.2897428783311398],[112.57802893818496,-7.2896146862686919],[112.57807201930825,-7.2894632863015545],[112.57809956913991,-7.2893553352804474],[112.57814260080045,-7.2892965124240732],[112.57818479609148,-7.2892550473824826],[112.57821206443532,-7.289172411377649],[112.57829611957027,-7.2889088533608515],[112.5782785378243,-7.2888566603065783],[112.57824463158454,-7.2888127500083328],[112.57823757100721,-7.2888011118817531],[112.57824217014013,-7.2887709908884517],[112.57825371203921,-7.2887616379392171],[112.57833469329148,-7.2886645300440023],[112.5783670149259,-7.288639465039239],[112.57843441281796,-7.2885659103883995],[112.57846130524513,-7.288568438382697],[112.57851604068276,-7.2884397795721156],[112.57854272266854,-7.2883825494150756],[112.57858555018311,-7.2883081763811788],[112.57858545665351,-7.288281415255085],[112.57858536762069,-7.2882559212736737],[112.57860912141393,-7.2881938185898321],[112.57862357441843,-7.2881625779405681],[112.57864743343237,-7.2881312140842169],[112.57865903918332,-7.2881188780837078],[112.57867498056601,-7.2881079756025429],[112.57870623740303,-7.2880983744403807],[112.57873533496775,-7.2880910395697924],[112.57884547943536,-7.2880692274128478],[112.57886100263318,-7.2880665510304539],[112.5788759529629,-7.2880710188624107],[112.57888310167391,-7.2880864539266668],[112.57889609957545,-7.2881090098229038],[112.57891950982753,-7.288141205552165],[112.57894354600785,-7.2881598341090239],[112.57895845406949,-7.2881733428254734],[112.57897725079954,-7.2881888273524282],[112.57899155901328,-7.2882016166112749],[112.57901420843905,-7.2882080449652449],[112.57902912729242,-7.2882034746106115],[112.57905365720057,-7.2881923580907824],[112.57908078614946,-7.2881774374387192],[112.57909046555255,-7.28816971855764],[112.57910260190363,-7.2881591883957526],[112.57911186492072,-7.2881600598388445],[112.57912017285776,-7.2881654548717734],[112.57912983517383,-7.2881737394264974],[112.57913883019296,-7.2881835618218815],[112.57918064057412,-7.2882671322223018],[112.57919848762015,-7.2882875935975449],[112.57922205885097,-7.2883017039604283],[112.57926529555698,-7.2883015528743158],[112.57930539003178,-7.288299786605819],[112.57945150108594,-7.2882915002525124],[112.57953527383393,-7.2882881340900667],[112.57960546142294,-7.2882855404453153],[112.57962081644757,-7.2882778899126492],[112.57963100756501,-7.2882665539582376],[112.57964620610755,-7.2882139741955143],[112.57965579198128,-7.2881792252909463],[112.57967570926667,-7.2881306070418077],[112.57970435717039,-7.2881228234095374],[112.57973442060711,-7.2881140379324734],[112.57975073880561,-7.2881040365720082],[112.57975848286776,-7.2880976810631068],[112.57978331404877,-7.2880872875982163],[112.57979093130655,-7.2880662884284106],[112.57979331540923,-7.288042862887778],[112.57979728501675,-7.2880254915831415],[112.57983907561288,-7.2878681282115281],[112.5800192341004,-7.2879017628560518],[112.58011156389762,-7.2879319072316662],[112.5801864936119,-7.287940595581972],[112.58032642992089,-7.2880031200479038],[112.58046891041192,-7.2880884180460157],[112.58043884517667,-7.2883308132164188],[112.58067171023129,-7.2883814405510066],[112.58125509414731,-7.2885153720866924],[112.58172462569098,-7.2886139908429755],[112.58207010295291,-7.2886651280931574],[112.58218506059211,-7.288547287227459],[112.58280735457583,-7.2886818941540241],[112.58321112409419,-7.2887670914280989],[112.5834616572298,-7.2888087938906665],[112.58372569728317,-7.2888481005593349],[112.5840180066258,-7.2888993322383726],[112.58403659741111,-7.2888981820054255],[112.58406759344473,-7.2888784553763912],[112.58411937910614,-7.2888679665833251],[112.58415044258891,-7.2888678595639931],[112.58421577743627,-7.2888872480480131],[112.58430956593384,-7.2889071698299972],[112.58438823862639,-7.2889395310344867],[112.58451278303858,-7.2889783313848397],[112.58456783144038,-7.2889820275984221],[112.5846882065955,-7.2885779388207652],[112.58471384266977,-7.2884781311607867],[112.58471361783927,-7.2884142154436518],[112.58472139427704,-7.2883107619320526],[112.58475479959441,-7.2881910369867455],[112.58483905258026,-7.2877076100181171],[112.58505353459304,-7.2877120121995631],[112.58537472656246,-7.2876735481956416],[112.5854151852626,-7.28764836358107],[112.58530563614624,-7.287180714318481],[112.5850302754269,-7.2870861200283912],[112.58418015259201,-7.2867816275700079],[112.58354192442039,-7.2865521493621372],[112.58363958090195,-7.2861861135982053],[112.58379593793222,-7.2855874376101042],[112.58370034359609,-7.2854993544116269],[112.58366026261115,-7.2854832205741218],[112.58363771660743,-7.2854635011396454],[112.58364159808139,-7.2854418814376345],[112.5836694455885,-7.285397935166543],[112.58378014044115,-7.2851927773247667],[112.58381109600532,-7.285140504230867],[112.58384345990783,-7.2849149173894716],[112.58386038424942,-7.2847373003860412],[112.58391778797557,-7.284497431411296],[112.58388527208774,-7.2842755084079158],[112.58390019993431,-7.2841883928799689],[112.58393103858657,-7.284081696413125],[112.58393973503075,-7.2839635039125028],[112.58396233229587,-7.2838489698540343],[112.58396335662371,-7.283715345886435],[112.58398743956877,-7.2835990005933695],[112.58400803044628,-7.2834443315906015],[112.58407833584658,-7.283412175431522],[112.5841140668108,-7.283380043554132],[112.58390049581135,-7.2828051744191953],[112.58369458343839,-7.2822629129030361],[112.58365905302298,-7.2821819433419819],[112.58360051165437,-7.2821827824094498],[112.58353824259586,-7.2821434910292169],[112.58344247289187,-7.2820683355851656],[112.58339093904067,-7.2820020681409119],[112.58333733944676,-7.2819210716001521],[112.583284706624,-7.2818610445515333],[112.58323332385885,-7.2818169256105989],[112.58313512958262,-7.2817536223317347],[112.58306781712611,-7.2817232090587822],[112.58294787364548,-7.2816756223320454],[112.58281088981073,-7.281624388854425],[112.5827228695648,-7.2815873592691673],[112.58261323231488,-7.2815403705915855],[112.58249060705589,-7.2814947821584042],[112.58238535130295,-7.2814621511573137],[112.58212003061499,-7.2813757460937722],[112.5820197031469,-7.2813215808262726],[112.58192851189142,-7.2812964960364184],[112.58180817990365,-7.2812659973278642],[112.58167692744826,-7.2812301125795784],[112.58150911485382,-7.2811816993759066],[112.58139433258248,-7.2811584132301164],[112.58134206758245,-7.2811599519701531],[112.58129764556998,-7.2811624565820807],[112.58122581222153,-7.281142185863132],[112.58119044818068,-7.2811298345741875],[112.58113920211258,-7.2811243172334343],[112.58109245355399,-7.2811233954283239],[112.58105713627788,-7.2811246041171671],[112.58101393644404,-7.2811349724009915],[112.58092057242652,-7.2811501232795308],[112.58084091317767,-7.2811765291734218],[112.58073137665178,-7.2812218433133467],[112.58068484842704,-7.281241172442094],[112.5805733585737,-7.2812415618485602],[112.5805471145577,-7.2812527745958278],[112.58039948544797,-7.2813381814119111],[112.58034587506211,-7.2813616015566254],[112.58032385156457,-7.2813633984020498],[112.58023273405354,-7.281316071579397],[112.58016596928417,-7.2812929805865565],[112.58009655421267,-7.2812806553778842],[112.58004601141431,-7.2812628416068037],[112.57998062890294,-7.2812291655934587],[112.57994522529202,-7.2812054225921088],[112.57988579809114,-7.2811453280943965],[112.57983081623922,-7.2810750964384852],[112.57981815918072,-7.2810433152966993],[112.57982599857098,-7.2810000731947753],[112.57984373859767,-7.2808416189454874],[112.57984619824356,-7.2807122379793441],[112.57987155103126,-7.2803606489247841],[112.57987503680351,-7.2802686033133455],[112.57986514965694,-7.2800675733597586],[112.57983151321378,-7.2799731265585024],[112.57980687358838,-7.279888860982112],[112.57980038497988,-7.2798480200700055],[112.57978985661669,-7.2797628030108967],[112.57978834305766,-7.279671859968289],[112.57977452317573,-7.2796276088270133],[112.57974182562486,-7.2795876744315819],[112.57973675344851,-7.279568161841155],[112.5797339952278,-7.2795051589358764],[112.57971912044115,-7.2794797162158602],[112.57965360842729,-7.2794300403640477],[112.57962502257681,-7.2794136852933207],[112.57962687158295,-7.2793864673115536],[112.57964780240422,-7.279329076175884],[112.57966848231467,-7.2792849761207208],[112.57956503509831,-7.2792781952324503],[112.57959451757301,-7.2792317128731838],[112.57965480542498,-7.2791112621749789],[112.57943959855868,-7.2790697036039091],[112.57919886443608,-7.2790304922633595],[112.57906189858784,-7.2789836870474574],[112.57899133688079,-7.278963863291608],[112.57900129597306,-7.2788649225780659],[112.57883794941188,-7.2787904551153702],[112.57883137356907,-7.2787892122523203],[112.57884876915546,-7.2786604122482004],[112.5788965654242,-7.2784694879764515],[112.57899570219001,-7.2781407848692652],[112.57902439955649,-7.2781050655962645],[112.57910674058371,-7.2780125631292663],[112.57935827106746,-7.2780424242184836],[112.57970237686322,-7.2780881448519494],[112.5797321030542,-7.2780895783712936],[112.57983052395957,-7.2780688031327259],[112.57989406286072,-7.278066500868249],[112.58009729525406,-7.2781005995629471],[112.5801068235711,-7.2779000435521084],[112.58011082285623,-7.2778693820662852],[112.58051714195255,-7.2778966234303653],[112.58106996240895,-7.2779427892282911],[112.58112614395645,-7.2776734530673366],[112.58124207825938,-7.2774505569975645],[112.58130874410335,-7.2773176983530448],[112.58132416657713,-7.2770942500995375],[112.58169271144959,-7.2771674594106912],[112.58178482091284,-7.2770716672235949],[112.58181131224228,-7.2770238385792254],[112.58197125666823,-7.277000770069435],[112.58199693680922,-7.2772973943592092],[112.58198539940668,-7.2775204675954797],[112.58204081203394,-7.277522352574465],[112.58217066964073,-7.2775224434059851],[112.58227337041978,-7.2774870074194382],[112.58229054207493,-7.277486042446867],[112.58245217542765,-7.277518746293083],[112.58251023386026,-7.2775295732311633],[112.58258344856733,-7.2775395332228072],[112.58271562282778,-7.2775403372167489],[112.58279132416033,-7.2775350114316097],[112.58287883089338,-7.2772338302769981],[112.58291296556092,-7.2771514415857155],[112.58302163603969,-7.2769017214372411],[112.58314780462752,-7.2766163179886121],[112.58317498303904,-7.2764878462370461],[112.58319442008644,-7.27636627138628],[112.5832018071178,-7.2763435554107332]]]},"properties":{"Shape_Length":0.08028491702964817,"Shape_Area":0.00016468977339559158,"OBJECTID_1":39614,"OBJECTID":24276,"NAMOBJ":"Sidojangkung","FCODE":"BA03070040","REMARK":"-","METADATA":"TASWIL1000020210531_DATA_BATAS_DESA/KELURAHAN","SRS_ID":"SRGI 2013","KDBBPS":"3525","KDCBPS":"3525040","KDCPUM":"35.25.13","KDEBPS":"3525040013","KDEPUM":"35.25.13.2010","KDPBPS":"35","KDPKAB":"35.25","KDPPUM":"35","LUASWH":2011256.1129999999,"TIPADM":1,"WADMKC":"Menganti","WADMKD":"Sidojangkung","WADMKK":"Gresik","WADMPR":"Jawa Timur","WIADKC":" ","WIADKK":" ","WIADPR":" ","WIADKD":" ","UUPP":"Hasil Sinkronisasi Data Pemerintah Daerah Tahun 2019","STATUS_BAT":"","CEK_PENDUDUK":1,"ket":null,"PENDUDUK":6953,"KK":2136,"LAKI_LAKI":3505,"PEREMPUAN":3448,"UMUR_RENTAN":637,"IDDESA":"3525040013"}}]}